NORAD_CAT_ID,OBJECT_NAME,OBJECT_TYPE,EPOCH,MEAN_MOTION,ECCENTRICITY,INCLINATION,RA_OF_ASC_NODE,ARG_OF_PERICENTER,MEAN_ANOMALY,BSTAR,MEAN_MOTION_DOT,MEAN_MOTION_DDOT,TLE_LINE0,TLE_LINE1,TLE_LINE2,SEMIMAJOR_AXIS,PERIOD,APOGEE,PERIGEE,DECAYED
53859.0,STARLINK-4790,PAYLOAD,2024-06-09 17:04:29,15.088312,0.000147,53.2173,272.7689,105.4627,254.6528,-6.5672e-05,-1.333e-05,0.0,0 STARLINK-4790,1 53859U 22114AT  24161.71144996 -.00001333  00000-0 -65672-4 0  9997,2 53859  53.2173 272.7689 0001470 105.4627 254.6528 15.08831200 96736,6917.907,95.438,540.789,538.755,0.0
53859.0,STARLINK-4790,PAYLOAD,2024-06-10 01:01:23,15.08838261,5.31e-05,53.2189,271.2858,114.6103,245.4945,0.00022626,3.315e-05,0.0,0 STARLINK-4790,1 53859U 22114AT  24162.04263359  .00003315  00000-0  22626-3 0  9990,2 53859  53.2189 271.2858 0000531 114.6103 245.4945 15.08838261 96244,6917.886,95.438,540.118,539.383,0.0
53859.0,STARLINK-4790,PAYLOAD,2024-06-10 13:44:29,15.08837368,0.000138,53.217,268.9066,97.2969,262.818,0.00014766,2.063e-05,0.0,0 STARLINK-4790,1 53859U 22114AT  24162.57256060  .00002063  00000-0  14766-3 0  9994,2 53859  53.2170 268.9066 0001380  97.2969 262.8180 15.08837368 96866,6917.888,95.438,540.708,538.799,0.0
53859.0,STARLINK-4790,PAYLOAD,2024-06-11 13:35:16,15.08833016,0.0001407,53.2174,264.4434,104.0495,256.0654,0.00015911,2.245e-05,0.0,0 STARLINK-4790,1 53859U 22114AT  24163.56616218  .00002245  00000-0  15911-3 0  9994,2 53859  53.2174 264.4434 0001407 104.0495 256.0654 15.08833016 97016,6917.902,95.438,540.74,538.793,0.0
53859.0,STARLINK-4790,PAYLOAD,2024-06-12 07:04:31,15.08818923,0.0001361,53.2178,261.1741,99.0233,261.0913,0.00025375,3.751e-05,0.0,0 STARLINK-4790,1 53859U 22114AT  24164.29480996  .00003751  00000-0  25375-3 0  9995,2 53859  53.2178 261.1741 0001361  99.0233 261.0913 15.08818923 96582,6917.945,95.439,540.751,538.868,0.0
53859.0,STARLINK-4790,PAYLOAD,2024-06-12 13:26:04,15.08831003,0.0001263,53.2176,259.9873,99.7652,260.3483,-1.1686e-05,-4.74e-06,0.0,0 STARLINK-4790,1 53859U 22114AT  24164.55976988 -.00000474  00000-0 -11686-4 0  9997,2 53859  53.2176 259.9873 0001263  99.7652 260.3483 15.08831003 97167,6917.908,95.438,540.647,538.899,0.0
53859.0,STARLINK-4790,PAYLOAD,2024-06-13 13:16:50,15.08837039,0.0001169,53.2172,255.5284,101.9288,258.1835,7.8318e-05,9.59e-06,0.0,0 STARLINK-4790,1 53859U 22114AT  24165.55336551  .00000959  00000-0  78318-4 0  9995,2 53859  53.2172 255.5284 0001169 101.9288 258.1835 15.08837039 96774,6917.889,95.438,540.563,538.946,0.0
53859.0,STARLINK-4790,PAYLOAD,2024-06-14 13:07:36,15.08857786,0.0001016,53.2169,251.0658,90.6602,269.4507,0.00029938,4.482e-05,0.0,0 STARLINK-4790,1 53859U 22114AT  24166.54694612  .00004482  00000-0  29938-3 0  9998,2 53859  53.2169 251.0658 0001016  90.6602 269.4507 15.08857786 97460,6917.826,95.436,540.394,538.988,0.0
53859.0,STARLINK-4790,PAYLOAD,2024-06-14 14:42:59,15.08858476,0.0001044,53.2167,250.7685,87.5711,272.5401,0.00030324,4.544e-05,0.0,0 STARLINK-4790,1 53859U 22114AT  24166.61318546  .00004544  00000-0  30324-3 0  9995,2 53859  53.2167 250.7685 0001044  87.5711 272.5401 15.08858476 97477,6917.824,95.436,540.411,538.967,0.0
53859.0,STARLINK-4790,PAYLOAD,2024-06-15 14:33:47,15.08841554,8.7e-05,53.2165,246.3085,98.0041,262.105,-2.2139e-05,-6.4e-06,0.0,0 STARLINK-4790,1 53859U 22114AT  24167.60680007 -.00000640  00000-0 -22139-4 0  9990,2 53859  53.2165 246.3085 0000870  98.0041 262.1050 15.08841554 97620,6917.876,95.437,540.342,539.139,0.0
53859.0,STARLINK-4790,PAYLOAD,2024-06-15 22:30:43,15.08842244,0.0001026,53.2171,244.8223,74.009,286.1015,-2.4978e-05,-6.85e-06,0.0,0 STARLINK-4790,1 53859U 22114AT  24167.93799992 -.00000685  00000-0 -24978-4 0  9992,2 53859  53.2171 244.8223 0001026  74.0090 286.1015 15.08842244 97675,6917.874,95.437,540.448,539.029,0.0
53859.0,STARLINK-4790,PAYLOAD,2024-06-16 11:13:48,15.08836082,0.0001077,53.2171,242.4427,80.2353,279.876,-4.4333e-05,-9.93e-06,0.0,0 STARLINK-4790,1 53859U 22114AT  24168.46792440 -.00000993  00000-0 -44333-4 0  9991,2 53859  53.2171 242.4427 0001077  80.2353 279.8760 15.08836082 97750,6917.892,95.438,540.502,539.012,0.0
53859.0,STARLINK-4790,PAYLOAD,2024-06-16 22:21:29,15.08851801,0.0001153,53.2174,240.3603,82.4407,277.6716,-0.0001185,-2.174e-05,0.0,0 STARLINK-4790,1 53859U 22114AT  24168.93159488 -.00002174  00000-0 -11850-3 0  9992,2 53859  53.2174 240.3603 0001153  82.4407 277.6716 15.08851801 97826,6917.844,95.437,540.507,538.912,0.0
53859.0,STARLINK-4790,PAYLOAD,2024-06-17 22:12:17,15.08832503,0.0001414,53.2185,235.8993,78.6553,281.4598,3.4275e-05,2.57e-06,0.0,0 STARLINK-4790,1 53859U 22114AT  24169.92520801  .00000257  00000-0  34275-4 0  9998,2 53859  53.2185 235.8993 0001414  78.6553 281.4598 15.08832503 97973,6917.903,95.438,540.746,538.79,0.0
53859.0,STARLINK-4790,PAYLOAD,2024-06-18 10:55:22,15.0883872,0.0001322,53.2181,233.5207,90.579,269.5353,5.6494e-05,6.11e-06,0.0,0 STARLINK-4790,1 53859U 22114AT  24170.45512466  .00000611  00000-0  56494-4 0  9997,2 53859  53.2181 233.5207 0001322  90.5790 269.5353 15.08838720 97519,6917.884,95.438,540.664,538.835,0.0
53859.0,STARLINK-4790,PAYLOAD,2024-06-19 10:46:10,15.08831553,0.0001168,53.2166,229.0611,85.078,275.0346,7.7152e-05,9.4e-06,0.0,0 STARLINK-4790,1 53859U 22114AT  24171.44873071  .00000940  00000-0  77152-4 0  9998,2 53859  53.2166 229.0611 0001168  85.0780 275.0346 15.08831553 97664,6917.906,95.438,540.579,538.963,0.0
53859.0,STARLINK-4790,PAYLOAD,2024-06-19 13:56:56,15.08835155,0.0001198,53.2166,228.4657,84.1074,276.0055,7.3954e-05,8.89e-06,0.0,0 STARLINK-4790,1 53859U 22114AT  24171.58120896  .00000889  00000-0  73954-4 0  9991,2 53859  53.2166 228.4657 0001198  84.1074 276.0055 15.08835155 98229,6917.895,95.438,540.589,538.931,0.0
53859.0,STARLINK-4790,PAYLOAD,2024-06-20 10:36:58,15.0882491,0.0001229,53.2163,224.5995,82.4993,277.6139,-6.0193e-05,-1.245e-05,0.0,0 STARLINK-4790,1 53859U 22114AT  24172.44234366 -.00001245  00000-0 -60193-4 0  9995,2 53859  53.2163 224.5995 0001229  82.4993 277.6139 15.08824910 98355,6917.927,95.439,540.642,538.941,0.0
53859.0,STARLINK-4790,PAYLOAD,2024-06-20 20:09:17,15.08822679,0.0001068,53.2153,222.8131,67.5341,292.5764,-7.7402e-05,-1.519e-05,0.0,0 STARLINK-4790,1 53859U 22114AT  24172.83978887 -.00001519  00000-0 -77402-4 0  9996,2 53859  53.2153 222.8131 0001068  67.5341 292.5764 15.08822679 97875,6917.933,95.439,540.537,539.059,0.0
53859.0,STARLINK-4790,PAYLOAD,2024-06-21 08:52:22,15.08826592,0.0001132,53.2155,220.4357,75.3702,284.7416,-1.4918e-05,-5.25e-06,0.0,0 STARLINK-4790,1 53859U 22114AT  24173.36970966 -.00000525  00000-0 -14918-4 0  9994,2 53859  53.2155 220.4357 0001132  75.3702 284.7416 15.08826592 98495,6917.921,95.438,540.569,539.003,0.0
53859.0,STARLINK-4790,PAYLOAD,2024-06-22 11:53:56,15.08831491,0.0001227,53.2159,215.3813,73.1576,286.9551,0.00018039,2.584e-05,0.0,0 STARLINK-4790,1 53859U 22114AT  24174.49578782  .00002584  00000-0  18039-3 0  9991,2 53859  53.2159 215.3813 0001227  73.1576 286.9551 15.08831491 98127,6917.906,95.438,540.62,538.923,0.0
53859.0,STARLINK-4790,PAYLOAD,2024-06-23 02:12:23,15.08842644,0.0001229,53.216,212.7054,75.7008,284.4121,0.00017771,2.542e-05,0.0,0 STARLINK-4790,1 53859U 22114AT  24175.09194233  .00002542  00000-0  17771-3 0  9999,2 53859  53.2160 212.7054 0001229  75.7008 284.4121 15.08842644 98215,6917.872,95.437,540.588,538.887,0.0
53859.0,STARLINK-4790,PAYLOAD,2024-06-23 10:09:19,15.08849478,0.000119,53.2158,211.2179,78.0241,282.0884,0.00017889,2.561e-05,0.0,0 STARLINK-4790,1 53859U 22114AT  24175.42313714  .00002561  00000-0  17889-3 0  9994,2 53859  53.2158 211.2179 0001190  78.0241 282.0884 15.08849478 98803,6917.851,95.437,540.54,538.893,0.0
53859.0,STARLINK-4790,PAYLOAD,2024-06-24 08:24:42,15.08852176,0.0001184,53.2158,207.0548,79.0029,281.1097,5.2097e-05,5.42e-06,0.0,0 STARLINK-4790,1 53859U 22114AT  24176.35049318  .00000542  00000-0  52097-4 0  9991,2 53859  53.2158 207.0548 0001184  79.0029 281.1097 15.08852176 98405,6917.843,95.437,540.527,538.889,0.0
53859.0,STARLINK-4790,PAYLOAD,2024-06-25 05:04:43,15.08847845,0.0001224,53.2156,203.1893,79.6434,280.4696,-5.118e-05,-1.102e-05,0.0,0 STARLINK-4790,1 53859U 22114AT  24177.21161354 -.00001102  00000-0 -51180-4 0  9999,2 53859  53.2156 203.1893 0001224  79.6434 280.4696 15.08847845 98532,6917.856,95.437,540.568,538.875,0.0
53859.0,STARLINK-4790,PAYLOAD,2024-06-25 08:15:29,15.08846755,0.0001181,53.2155,202.5943,83.2242,276.8884,-6.1906e-05,-1.273e-05,0.0,0 STARLINK-4790,1 53859U 22114AT  24177.34409338 -.00001273  00000-0 -61906-4 0  9996,2 53859  53.2155 202.5943 0001181  83.2242 276.8884 15.08846755 99099,6917.86,95.437,540.542,538.908,0.0
53859.0,STARLINK-4790,PAYLOAD,2024-06-26 06:30:53,15.08840809,0.0001217,53.2157,198.4327,94.9682,265.1449,5.6764e-06,-1.98e-06,0.0,0 STARLINK-4790,1 53859U 22114AT  24178.27145112 -.00000198  00000-0  56764-5 0  9997,2 53859  53.2157 198.4327 0001217  94.9682 265.1449 15.08840809 98694,6917.878,95.438,540.585,538.901,0.0
53859.0,STARLINK-4790,PAYLOAD,2024-06-27 07:57:03,15.0883718,0.000119,53.2157,193.6773,93.8907,266.2221,3.2006e-05,2.22e-06,0.0,0 STARLINK-4790,1 53859U 22114AT  24179.33129343  .00000222  00000-0  32006-4 0  9992,2 53859  53.2157 193.6773 0001190  93.8907 266.2221 15.08837180 98850,6917.889,95.438,540.577,538.931,0.0
53859.0,STARLINK-4790,PAYLOAD,2024-06-27 17:29:22,15.08838054,0.000118,53.2154,191.8882,81.7901,278.3225,3.8685e-05,3.28e-06,0.0,0 STARLINK-4790,1 53859U 22114AT  24179.72873328  .00000328  00000-0  38685-4 0  9990,2 53859  53.2154 191.8882 0001180  81.7901 278.3225 15.08838054 99453,6917.886,95.438,540.568,538.935,0.0
53859.0,STARLINK-4790,PAYLOAD,2024-06-28 07:47:51,15.08835541,0.0001248,53.2152,189.2145,93.3556,266.7579,1.444e-05,-5.8e-07,0.0,0 STARLINK-4790,1 53859U 22114AT  24180.32489751 -.00000058  00000-0  14440-4 0  9995,2 53859  53.2152 189.2145 0001248  93.3556 266.7579 15.08835541 99545,6917.894,95.438,540.622,538.896,0.0
